[{"OBJECT_NAME":"STARLINK-5304","OBJECT_ID":"2022-177Z","EPOCH":"2026-03-09T22:00:01.999584","MEAN_MOTION":15.17797335,"ECCENTRICITY":0.00014815,"INCLINATION":42.9994,"RA_OF_ASC_NODE":131.1615,"ARG_OF_PERICENTER":254.4568,"MEAN_ANOMALY":349.7624,"EPHEMERIS_TYPE":0,"CLASSIFICATION_TYPE":"U","NORAD_CAT_ID":54843,"ELEMENT_SET_NO":999,"REV_AT_EPOCH":577,"BSTAR":0.058895764,"MEAN_MOTION_DOT":0.01315351,"MEAN_MOTION_DDOT":0},{"OBJECT_NAME":"FENGYUN 1C DEB","OBJECT_ID":"1999-025QK","EPOCH":"2026-03-09T09:38:35.752416","MEAN_MOTION":15.21777611,"ECCENTRICITY":0.00584989,"INCLINATION":98.8236,"RA_OF_ASC_NODE":15.4163,"ARG_OF_PERICENTER":235.7553,"MEAN_ANOMALY":123.8129,"EPHEMERIS_TYPE":0,"CLASSIFICATION_TYPE":"U","NORAD_CAT_ID":30082,"ELEMENT_SET_NO":999,"REV_AT_EPOCH":2608,"BSTAR":0.001566847,"MEAN_MOTION_DOT":0.00037313,"MEAN_MOTION_DDOT":0}]
